{"type": "FeatureCollection", "features": [ {"type": "Feature", "properties": {"norad_id": 38552, "name": "METEOSAT-10 (MSG-3)", "group": "weather", "lat": 4.181106866282456, "lon": 142.2189380715929, "alt_km": 35787.846481561945, "timestamp": "2025-12-14T03:55:52.436435+00:00", "meta": {"OBJECT_NAME": "METEOSAT-10 (MSG-3)", "OBJECT_ID": "2012-035B", "EPOCH": "2025-12-12T23:45:12.989952", "MEAN_MOTION": 1.00275102, "ECCENTRICITY": 7.862e-05, "INCLINATION": 4.2297, "RA_OF_ASC_NODE": 61.7246, "ARG_OF_PERICENTER": 255.1243, "MEAN_ANOMALY": 121.5641, "EPHEMERIS_TYPE": 0, "CLASSIFICATION_TYPE": "U", "NORAD_CAT_ID": 38552, "ELEMENT_SET_NO": 999, "REV_AT_EPOCH": 4899, "BSTAR": 0, "MEAN_MOTION_DOT": 6e-08, "MEAN_MOTION_DDOT": 0}, "tle": {"line1": "1 38552U 12035B   25346.98973368  .00000006  00000+0  00000+0 0  9991", "line2": "2 38552   4.2297  61.7246 0000786 255.1243 121.5641  1.00275102 48996"}}, "geometry": {"type": "Point", "coordinates": [142.2189380715929, 4.181106866282456]}}, {"type": "Feature", "properties": {"norad_id": 38771, "name": "METOP-B", "group": "weather", "lat": 9.04824811205076, "lon": -140.50762485249797, "alt_km": 820.4348137894858, "timestamp": "2025-12-14T03:55:52.436447+00:00", "meta": {"OBJECT_NAME": "METOP-B", "OBJECT_ID": "2012-049A", "EPOCH": "2025-12-13T05:10:05.847744", "MEAN_MOTION": 14.21408711, "ECCENTRICITY": 0.00029319, "INCLINATION": 98.68, "RA_OF_ASC_NODE": 37.1661, "ARG_OF_PERICENTER": 143.1168, "MEAN_ANOMALY": 217.0211, "EPHEMERIS_TYPE": 0, "CLASSIFICATION_TYPE": "U", "NORAD_CAT_ID": 38771, "ELEMENT_SET_NO": 999, "REV_AT_EPOCH": 68684, "BSTAR": 0.00012548221, "MEAN_MOTION_DOT": 2.31e-06, "MEAN_MOTION_DDOT": 0}, "tle": {"line1": "1 38771U 12049A   25347.21534546  .00000231  00000+0  12548-3 0  9991", "line2": "2 38771  98.6800  37.1661 0002931 143.1168 217.0211 14.21408711686847"}}, "geometry": {"type": "Point", "coordinates": [-140.50762485249797, 9.04824811205076]}}, {"type": "Feature", "properties": {"norad_id": 39216, "name": "INSAT-3D", "group": "weather", "lat": -0.185397617607442, "lon": -88.42545169132056, "alt_km": 35781.18700453014, "timestamp": "2025-12-14T03:55:52.436459+00:00", "meta": {"OBJECT_NAME": "INSAT-3D", "OBJECT_ID": "2013-038B", "EPOCH": "2025-12-13T05:30:09.949248", "MEAN_MOTION": 1.00269791, "ECCENTRICITY": 0.00014274, "INCLINATION": 1.4462, "RA_OF_ASC_NODE": 84.989, "ARG_OF_PERICENTER": 164.7653, "MEAN_ANOMALY": 44.4821, "EPHEMERIS_TYPE": 0, "CLASSIFICATION_TYPE": "U", "NORAD_CAT_ID": 39216, "ELEMENT_SET_NO": 999, "REV_AT_EPOCH": 4521, "BSTAR": 0, "MEAN_MOTION_DOT": -3.25e-06, "MEAN_MOTION_DDOT": 0}, "tle": {"line1": "1 39216U 13038B   25347.22928182 -.00000325  00000+0  00000+0 0  9990", "line2": "2 39216   1.4462  84.9890 0001427 164.7653  44.4821  1.00269791 45214"}}, "geometry": {"type": "Point", "coordinates": [-88.42545169132056, -0.185397617607442]}}, {"type": "Feature", "properties": {"norad_id": 39260, "name": "FENGYUN 3C", "group": "weather", "lat": 27.969880313206183, "lon": -38.768407169061454, "alt_km": 848.5922990568451, "timestamp": "2025-12-14T03:55:52.436470+00:00", "meta": {"OBJECT_NAME": "FENGYUN 3C", "OBJECT_ID": "2013-052A", "EPOCH": "2025-12-13T05:44:47.248800", "MEAN_MOTION": 14.15696622, "ECCENTRICITY": 0.00143236, "INCLINATION": 98.4763, "RA_OF_ASC_NODE": 324.8944, "ARG_OF_PERICENTER": 194.556, "MEAN_ANOMALY": 165.5204, "EPHEMERIS_TYPE": 0, "CLASSIFICATION_TYPE": "U", "NORAD_CAT_ID": 39260, "ELEMENT_SET_NO": 999, "REV_AT_EPOCH": 63225, "BSTAR": 0.00011721707, "MEAN_MOTION_DOT": 1.89e-06, "MEAN_MOTION_DDOT": 0}, "tle": {"line1": "1 39260U 13052A   25347.23943575  .00000189  00000+0  11722-3 0  9993", "line2": "2 39260  98.4763 324.8944 0014323 194.5560 165.5204 14.15696622632259"}}, "geometry": {"type": "Point", "coordinates": [-38.768407169061454, 27.969880313206183]}}, {"type": "Feature", "properties": {"norad_id": 40069, "name": "METEOR-M 2", "group": "weather", "lat": 38.31501989041922, "lon": -41.084984738670926, "alt_km": 821.2654217168247, "timestamp": "2025-12-14T03:55:52.436480+00:00", "meta": {"OBJECT_NAME": "METEOR-M 2", "OBJECT_ID": "2014-037A", "EPOCH": "2025-12-13T05:47:10.118112", "MEAN_MOTION": 14.21386012, "ECCENTRICITY": 0.0004973, "INCLINATION": 98.4904, "RA_OF_ASC_NODE": 324.8063, "ARG_OF_PERICENTER": 208.3354, "MEAN_ANOMALY": 151.7554, "EPHEMERIS_TYPE": 0, "CLASSIFICATION_TYPE": "U", "NORAD_CAT_ID": 40069, "ELEMENT_SET_NO": 999, "REV_AT_EPOCH": 59290, "BSTAR": 3.7695545e-05, "MEAN_MOTION_DOT": 4e-07, "MEAN_MOTION_DDOT": 0}, "tle": {"line1": "1 40069U 14037A   25347.24108933  .00000040  00000+0  37696-4 0  9993", "line2": "2 40069  98.4904 324.8063 0004973 208.3354 151.7554 14.21386012592900"}}, "geometry": {"type": "Point", "coordinates": [-41.084984738670926, 38.31501989041922]}}, {"type": "Feature", "properties": {"norad_id": 40267, "name": "HIMAWARI-8", "group": "weather", "lat": 0.00329135571796131, "lon": -77.29590597159935, "alt_km": 35781.375195517125, "timestamp": "2025-12-14T03:55:52.436492+00:00", "meta": {"OBJECT_NAME": "HIMAWARI-8", "OBJECT_ID": "2014-060A", "EPOCH": "2025-12-13T03:40:38.850816", "MEAN_MOTION": 1.00273756, "ECCENTRICITY": 0.00010091, "INCLINATION": 0.0364, "RA_OF_ASC_NODE": 182.2561, "ARG_OF_PERICENTER": 98.0334, "MEAN_ANOMALY": 357.6136, "EPHEMERIS_TYPE": 0, "CLASSIFICATION_TYPE": "U", "NORAD_CAT_ID": 40267, "ELEMENT_SET_NO": 999, "REV_AT_EPOCH": 4089, "BSTAR": 0, "MEAN_MOTION_DOT": -2.62e-06, "MEAN_MOTION_DDOT": 0}, "tle": {"line1": "1 40267U 14060A   25347.15322744 -.00000262  00000+0  00000+0 0  9998", "line2": "2 40267   0.0364 182.2561 0001009  98.0334 357.6136  1.00273756 40899"}}, "geometry": {"type": "Point", "coordinates": [-77.29590597159935, 0.00329135571796131]}}, {"type": "Feature", "properties": {"norad_id": 40367, "name": "FENGYUN 2G", "group": "weather", "lat": 1.1912195117834132, "lon": -118.42504047223272, "alt_km": 35777.07475301475, "timestamp": "2025-12-14T03:55:52.436521+00:00", "meta": {"OBJECT_NAME": "FENGYUN 2G", "OBJECT_ID": "2014-090A", "EPOCH": "2025-12-12T19:43:26.315040", "MEAN_MOTION": 1.00264152, "ECCENTRICITY": 0.00031038, "INCLINATION": 5.1689, "RA_OF_ASC_NODE": 75.0978, "ARG_OF_PERICENTER": 198.3363, "MEAN_ANOMALY": 203.7148, "EPHEMERIS_TYPE": 0, "CLASSIFICATION_TYPE": "U", "NORAD_CAT_ID": 40367, "ELEMENT_SET_NO": 999, "REV_AT_EPOCH": 4013, "BSTAR": 0, "MEAN_MOTION_DOT": -2.89e-06, "MEAN_MOTION_DDOT": 0}, "tle": {"line1": "1 40367U 14090A   25346.82183235 -.00000289  00000+0  00000+0 0  9994", "line2": "2 40367   5.1689  75.0978 0003103 198.3363 203.7148  1.00264152 40131"}}, "geometry": {"type": "Point", "coordinates": [-118.42504047223272, 1.1912195117834132]}}, {"type": "Feature", "properties": {"norad_id": 40732, "name": "METEOSAT-11 (MSG-4)", "group": "weather", "lat": 2.6941812112901835, "lon": 151.29926556546565, "alt_km": 35784.22703949368, "timestamp": "2025-12-14T03:55:52.436535+00:00", "meta": {"OBJECT_NAME": "METEOSAT-11 (MSG-4)", "OBJECT_ID": "2015-034A", "EPOCH": "2025-12-13T04:55:58.224000", "MEAN_MOTION": 1.00267634, "ECCENTRICITY": 9.244e-05, "INCLINATION": 2.7366, "RA_OF_ASC_NODE": 71.9998, "ARG_OF_PERICENTER": 127.3211, "MEAN_ANOMALY": 326.0967, "EPHEMERIS_TYPE": 0, "CLASSIFICATION_TYPE": "U", "NORAD_CAT_ID": 40732, "ELEMENT_SET_NO": 999, "REV_AT_EPOCH": 535, "BSTAR": 0, "MEAN_MOTION_DOT": 7.4e-07, "MEAN_MOTION_DDOT": 0}, "tle": {"line1": "1 40732U 15034A   25347.20553500  .00000074  00000+0  00000+0 0  9999", "line2": "2 40732   2.7366  71.9998 0000924 127.3211 326.0967  1.00267634  5352"}}, "geometry": {"type": "Point", "coordinates": [151.29926556546565, 2.6941812112901835]}}, {"type": "Feature", "properties": {"norad_id": 41105, "name": "ELEKTRO-L 2", "group": "weather", "lat": 5.09508927286418, "lon": 127.37278486074243, "alt_km": 35799.40178211304, "timestamp": "2025-12-14T03:55:52.436548+00:00", "meta": {"OBJECT_NAME": "ELEKTRO-L 2", "OBJECT_ID": "2015-074A", "EPOCH": "2025-12-13T00:37:38.678304", "MEAN_MOTION": 1.00272374, "ECCENTRICITY": 0.00038946, "INCLINATION": 6.2268, "RA_OF_ASC_NODE": 72.8255, "ARG_OF_PERICENTER": 203.8607, "MEAN_ANOMALY": 160.1915, "EPHEMERIS_TYPE": 0, "CLASSIFICATION_TYPE": "U", "NORAD_CAT_ID": 41105, "ELEMENT_SET_NO": 999, "REV_AT_EPOCH": 3664, "BSTAR": 0, "MEAN_MOTION_DOT": -1.06e-06, "MEAN_MOTION_DDOT": 0}, "tle": {"line1": "1 41105U 15074A   25347.02614211 -.00000106  00000+0  00000+0 0  9992", "line2": "2 41105   6.2268  72.8255 0003894 203.8607 160.1915  1.00272374 36644"}}, "geometry": {"type": "Point", "coordinates": [127.37278486074243, 5.09508927286418]}}, {"type": "Feature", "properties": {"norad_id": 41752, "name": "INSAT-3DR", "group": "weather", "lat": 0.052742052927445035, "lon": -144.0970913930984, "alt_km": 35751.26980020719, "timestamp": "2025-12-14T03:55:52.436560+00:00", "meta": {"OBJECT_NAME": "INSAT-3DR", "OBJECT_ID": "2016-054A", "EPOCH": "2025-12-13T01:16:38.512128", "MEAN_MOTION": 1.00270943, "ECCENTRICITY": 0.00143373, "INCLINATION": 0.0927, "RA_OF_ASC_NODE": 86.7145, "ARG_OF_PERICENTER": 184.0835, "MEAN_ANOMALY": 264.3487, "EPHEMERIS_TYPE": 0, "CLASSIFICATION_TYPE": "U", "NORAD_CAT_ID": 41752, "ELEMENT_SET_NO": 999, "REV_AT_EPOCH": 3395, "BSTAR": 0, "MEAN_MOTION_DOT": -6.4e-07, "MEAN_MOTION_DDOT": 0}, "tle": {"line1": "1 41752U 16054A   25347.05322352 -.00000064  00000+0  00000+0 0  9997", "line2": "2 41752   0.0927  86.7145 0014337 184.0835 264.3487  1.00270943 33957"}}, "geometry": {"type": "Point", "coordinates": [-144.0970913930984, 0.052742052927445035]}}]}